[{"OBJECT_NAME":"STARLINK-5971","OBJECT_ID":"2023-083AT","EPOCH":"2026-03-09T22:00:01.999584","MEAN_MOTION":15.07520475,"ECCENTRICITY":0.00019136,"INCLINATION":43.0006,"RA_OF_ASC_NODE":67.5285,"ARG_OF_PERICENTER":276.0834,"MEAN_ANOMALY":121.2729,"EPHEMERIS_TYPE":0,"CLASSIFICATION_TYPE":"U","NORAD_CAT_ID":56917,"ELEMENT_SET_NO":999,"REV_AT_EPOCH":572,"BSTAR":0.0046083449,"MEAN_MOTION_DOT":0.00071685,"MEAN_MOTION_DDOT":0},{"OBJECT_NAME":"SL-18 R\/B","OBJECT_ID":"2001-007B","EPOCH":"2026-03-09T23:25:11.323200","MEAN_MOTION":15.07301441,"ECCENTRICITY":0.00085554,"INCLINATION":97.6926,"RA_OF_ASC_NODE":87.6817,"ARG_OF_PERICENTER":353.225,"MEAN_ANOMALY":6.886,"EPHEMERIS_TYPE":0,"CLASSIFICATION_TYPE":"U","NORAD_CAT_ID":26703,"ELEMENT_SET_NO":999,"REV_AT_EPOCH":64619,"BSTAR":0.00021543689,"MEAN_MOTION_DOT":3.19e-5,"MEAN_MOTION_DDOT":0}]
